start=new Date('2023-02-28T00:00:00.000Z').valueOf();
sats=[{"MEAN_MOTION_DOT":"0.00004005","MEAN_MOTION_DDOT":"0.0000000000000","OBJECT_ID":"2022-052AJ","OBJECT_NAME":"STARLINK-3989","NORAD_CAT_ID":"52630","MEAN_ELEMENT_THEORY":"SGP4","CENTER_NAME":"EARTH","REF_FRAME":"TEME","BSTAR":"0.00026944000000","CLASSIFICATION_TYPE":"U","OBJECT_TYPE":"PAYLOAD","REV_AT_EPOCH":"4401","ARG_OF_PERICENTER":"85.0471","INCLINATION":"53.2148","RCS_SIZE":"LARGE","GP_ID":"227195232","PERIAPSIS":"538.867","LAUNCH_DATE":"2022-05-14","EPOCH":"2023-02-27T15:30:35.090208","ELEMENT_SET_NO":"999","TIME_SYSTEM":"UTC","ECCENTRICITY":"0.00011920","APOAPSIS":"540.516","COUNTRY_CODE":"US","EPHEMERIS_TYPE":"0","TLE_LINE2":"2 52630  53.2148 194.3415 0001192  85.0471 275.0657 15.08857640 44011","MEAN_MOTION":"15.08857640","TLE_LINE1":"1 52630U 22052AJ  23058.64623947  .00004005  00000-0  26944-3 0  9993","RA_OF_ASC_NODE":"194.3415","SEMIMAJOR_AXIS":"6917.826","PERIOD":"95.436","FILE":"3846812","DECAY_DATE":null,"MEAN_ANOMALY":"275.0657","SITE":"AFETR"},{"TIME_SYSTEM":"UTC","ELEMENT_SET_NO":"999","EPOCH":"2023-02-27T18:20:08.309184","ECCENTRICITY":"0.00003010","COUNTRY_CODE":"US","EPHEMERIS_TYPE":"0","APOAPSIS":"539.728","TLE_LINE2":"2 52631  53.2143 193.8166 0000301 240.0105 120.0857 15.08913678 44040","MEAN_MOTION":"15.08913678","TLE_LINE1":"1 52631U 22052AK  23058.76398506  .00048664  00000-0  30486-2 0  9991","SEMIMAJOR_AXIS":"6917.655","RA_OF_ASC_NODE":"193.8166","PERIOD":"95.433","FILE":"3846812","DECAY_DATE":null,"MEAN_ANOMALY":"120.0857","SITE":"AFETR","MEAN_MOTION_DOT":"0.00048664","OBJECT_ID":"2022-052AK","MEAN_MOTION_DDOT":"0.0000000000000","OBJECT_NAME":"STARLINK-3794","NORAD_CAT_ID":"52631","CENTER_NAME":"EARTH","REF_FRAME":"TEME","MEAN_ELEMENT_THEORY":"SGP4","BSTAR":"0.00304860000000","CLASSIFICATION_TYPE":"U","REV_AT_EPOCH":"4404","OBJECT_TYPE":"PAYLOAD","INCLINATION":"53.2143","ARG_OF_PERICENTER":"240.0105","RCS_SIZE":"LARGE","GP_ID":"227195481","PERIAPSIS":"539.312","LAUNCH_DATE":"2022-05-14"},{"CLASSIFICATION_TYPE":"U","ARG_OF_PERICENTER":"82.5302","INCLINATION":"53.2148","OBJECT_TYPE":"PAYLOAD","REV_AT_EPOCH":"4402","RCS_SIZE":"LARGE","GP_ID":"227196233","PERIAPSIS":"538.640","LAUNCH_DATE":"2022-05-14","MEAN_MOTION_DDOT":"0.0000000000000","OBJECT_ID":"2022-052AL","MEAN_MOTION_DOT":"0.00004109","OBJECT_NAME":"STARLINK-3995","NORAD_CAT_ID":"52632","BSTAR":"0.00027602000000","REF_FRAME":"TEME","CENTER_NAME":"EARTH","MEAN_ELEMENT_THEORY":"SGP4","RA_OF_ASC_NODE":"194.3613","SEMIMAJOR_AXIS":"6917.843","TLE_LINE1":"1 52632U 22052AL  23058.64256401  .00004109  00000-0  27602-3 0  9999","PERIOD":"95.437","DECAY_DATE":null,"FILE":"3846812","SITE":"AFETR","MEAN_ANOMALY":"277.5865","EPOCH":"2023-02-27T15:25:17.530464","ELEMENT_SET_NO":"999","TIME_SYSTEM":"UTC","ECCENTRICITY":"0.00015440","APOAPSIS":"540.776","COUNTRY_CODE":"US","EPHEMERIS_TYPE":"0","MEAN_MOTION":"15.08852295","TLE_LINE2":"2 52632  53.2148 194.3613 0001544  82.5302 277.5865 15.08852295 44029"},{"GP_ID":"227195984","RCS_SIZE":"LARGE","LAUNCH_DATE":"2022-05-14","PERIAPSIS":"538.838","CLASSIFICATION_TYPE":"U","REV_AT_EPOCH":"4404","OBJECT_TYPE":"PAYLOAD","ARG_OF_PERICENTER":"96.4379","INCLINATION":"53.2144","NORAD_CAT_ID":"52633","REF_FRAME":"TEME","MEAN_ELEMENT_THEORY":"SGP4","CENTER_NAME":"EARTH","BSTAR":"0.00183510000000","MEAN_MOTION_DOT":"0.00029077","OBJECT_ID":"2022-052AM","MEAN_MOTION_DDOT":"0.0000000000000","OBJECT_NAME":"STARLINK-3994","FILE":"3846812","DECAY_DATE":null,"MEAN_ANOMALY":"263.6738","SITE":"AFETR","TLE_LINE1":"1 52633U 22052AM  23058.75295236  .00029077  00000-0  18351-2 0  9992","SEMIMAJOR_AXIS":"6917.735","RA_OF_ASC_NODE":"193.8637","PERIOD":"95.435","COUNTRY_CODE":"US","EPHEMERIS_TYPE":"0","APOAPSIS":"540.362","TLE_LINE2":"2 52633  53.2144 193.8637 0001101  96.4379 263.6738 15.08887540 44041","MEAN_MOTION":"15.08887540","TIME_SYSTEM":"UTC","EPOCH":"2023-02-27T18:04:15.083904","ELEMENT_SET_NO":"999","ECCENTRICITY":"0.00011010"},{"OBJECT_NAME":"STARLINK-3974","OBJECT_ID":"2022-052AN","MEAN_MOTION_DDOT":"0.0000000000000","MEAN_MOTION_DOT":"0.00021637","BSTAR":"0.00137170000000","REF_FRAME":"TEME","CENTER_NAME":"EARTH","MEAN_ELEMENT_THEORY":"SGP4","NORAD_CAT_ID":"52634","ARG_OF_PERICENTER":"96.9257","INCLINATION":"53.2154","REV_AT_EPOCH":"4404","OBJECT_TYPE":"PAYLOAD","CLASSIFICATION_TYPE":"U","LAUNCH_DATE":"2022-05-14","PERIAPSIS":"538.854","GP_ID":"227194733","RCS_SIZE":"LARGE","ECCENTRICITY":"0.00010900","TIME_SYSTEM":"UTC","ELEMENT_SET_NO":"999","EPOCH":"2023-02-27T20:00:50.372640","MEAN_MOTION":"15.08885072","TLE_LINE2":"2 52634  53.2154 193.5255 0001090  96.9257 263.1859 15.08885072 44040","EPHEMERIS_TYPE":"0","COUNTRY_CODE":"US","APOAPSIS":"540.362","PERIOD":"95.435","SEMIMAJOR_AXIS":"6917.743","RA_OF_ASC_NODE":"193.5255","TLE_LINE1":"1 52634U 22052AN  23058.83391635  .00021637  00000-0  13717-2 0  9997","SITE":"AFETR","MEAN_ANOMALY":"263.1859","DECAY_DATE":null,"FILE":"3846812"},{"RCS_SIZE":"LARGE","GP_ID":"227194983","PERIAPSIS":"538.897","LAUNCH_DATE":"2022-05-14","CLASSIFICATION_TYPE":"U","OBJECT_TYPE":"PAYLOAD","REV_AT_EPOCH":"4415","INCLINATION":"53.2162","ARG_OF_PERICENTER":"69.5991","NORAD_CAT_ID":"52635","REF_FRAME":"TEME","CENTER_NAME":"EARTH","MEAN_ELEMENT_THEORY":"SGP4","BSTAR":"0.00042598000000","MEAN_MOTION_DOT":"0.00006502","MEAN_MOTION_DDOT":"0.0000000000000","OBJECT_ID":"2022-052AP","OBJECT_NAME":"STARLINK-3978","FILE":"3846812","DECAY_DATE":null,"MEAN_ANOMALY":"290.5124","SITE":"AFETR","TLE_LINE1":"1 52635U 22052AP  23058.60300023  .00006502  00000-0  42598-3 0  9998","RA_OF_ASC_NODE":"184.5357","SEMIMAJOR_AXIS":"6917.819","PERIOD":"95.436","APOAPSIS":"540.471","COUNTRY_CODE":"US","EPHEMERIS_TYPE":"0","TLE_LINE2":"2 52635  53.2162 184.5357 0001138  69.5991 290.5124 15.08860066 44154","MEAN_MOTION":"15.08860066","EPOCH":"2023-02-27T14:28:19.219872","ELEMENT_SET_NO":"999","TIME_SYSTEM":"UTC","ECCENTRICITY":"0.00011380"},{"PERIOD":"95.437","TLE_LINE1":"1 52636U 22052AQ  23058.76032017  .00003412  00000-0  23231-3 0  9991","RA_OF_ASC_NODE":"193.8295","SEMIMAJOR_AXIS":"6917.834","MEAN_ANOMALY":"274.1034","SITE":"AFETR","FILE":"3846812","DECAY_DATE":null,"ECCENTRICITY":"0.00021240","ELEMENT_SET_NO":"999","EPOCH":"2023-02-27T18:14:51.662688","TIME_SYSTEM":"UTC","TLE_LINE2":"2 52636  53.2165 193.8295 0002124  86.0201 274.1034 15.08855135 44032","MEAN_MOTION":"15.08855135","APOAPSIS":"541.168","COUNTRY_CODE":"US","EPHEMERIS_TYPE":"0","OBJECT_TYPE":"PAYLOAD","REV_AT_EPOCH":"4403","INCLINATION":"53.2165","ARG_OF_PERICENTER":"86.0201","CLASSIFICATION_TYPE":"U","PERIAPSIS":"538.230","LAUNCH_DATE":"2022-05-14","RCS_SIZE":"LARGE","GP_ID":"227195734","OBJECT_NAME":"STARLINK-3967","MEAN_MOTION_DOT":"0.00003412","MEAN_MOTION_DDOT":"0.0000000000000","OBJECT_ID":"2022-052AQ","MEAN_ELEMENT_THEORY":"SGP4","REF_FRAME":"TEME","CENTER_NAME":"EARTH","BSTAR":"0.00023231000000","NORAD_CAT_ID":"52636"},{"LAUNCH_DATE":"2022-05-14","PERIAPSIS":"538.729","GP_ID":"227196484","RCS_SIZE":"LARGE","ARG_OF_PERICENTER":"58.9768","INCLINATION":"53.2162","REV_AT_EPOCH":"4495","OBJECT_TYPE":"PAYLOAD","CLASSIFICATION_TYPE":"U","BSTAR":"0.00029507000000","MEAN_ELEMENT_THEORY":"SGP4","CENTER_NAME":"EARTH","REF_FRAME":"TEME","NORAD_CAT_ID":"52637","OBJECT_NAME":"STARLINK-3961","OBJECT_ID":"2022-052AR","MEAN_MOTION_DDOT":"0.0000000000000","MEAN_MOTION_DOT":"0.00004413","SITE":"AFETR","MEAN_ANOMALY":"301.1361","DECAY_DATE":null,"FILE":"3846812","PERIOD":"95.437","SEMIMAJOR_AXIS":"6917.833","RA_OF_ASC_NODE":"184.5524","TLE_LINE1":"1 52637U 22052AR  23058.59931519  .00004413  00000-0  29507-3 0  9992","MEAN_MOTION":"15.08855645","TLE_LINE2":"2 52637  53.2162 184.5524 0001400  58.9768 301.1361 15.08855645 44955","EPHEMERIS_TYPE":"0","COUNTRY_CODE":"US","APOAPSIS":"540.666","ECCENTRICITY":"0.00014000","TIME_SYSTEM":"UTC","ELEMENT_SET_NO":"999","EPOCH":"2023-02-27T14:23:00.832416"},{"SEMIMAJOR_AXIS":"6917.763","RA_OF_ASC_NODE":"193.8480","TLE_LINE1":"1 52638U 22052AS  23058.75663945  .00019641  00000-0  12474-2 0  9999","PERIOD":"95.435","DECAY_DATE":null,"FILE":"3846812","SITE":"AFETR","MEAN_ANOMALY":"268.3139","TIME_SYSTEM":"UTC","EPOCH":"2023-02-27T18:09:33.648480","ELEMENT_SET_NO":"999","ECCENTRICITY":"0.00012810","COUNTRY_CODE":"US","EPHEMERIS_TYPE":"0","APOAPSIS":"540.514","MEAN_MOTION":"15.08878457","TLE_LINE2":"2 52638  53.2136 193.8480 0001281  91.8000 268.3139 15.08878457 44844","CLASSIFICATION_TYPE":"U","INCLINATION":"53.2136","ARG_OF_PERICENTER":"91.8000","REV_AT_EPOCH":"4484","OBJECT_TYPE":"PAYLOAD","GP_ID":"227195233","RCS_SIZE":"LARGE","LAUNCH_DATE":"2022-05-14","PERIAPSIS":"538.742","OBJECT_ID":"2022-052AS","MEAN_MOTION_DDOT":"0.0000000000000","MEAN_MOTION_DOT":"0.00019641","OBJECT_NAME":"STARLINK-3941","NORAD_CAT_ID":"52638","BSTAR":"0.00124740000000","CENTER_NAME":"EARTH","REF_FRAME":"TEME","MEAN_ELEMENT_THEORY":"SGP4"},{"SITE":"AFETR","MEAN_ANOMALY":"280.9854","DECAY_DATE":null,"FILE":"3846812","PERIOD":"95.436","SEMIMAJOR_AXIS":"6917.783","RA_OF_ASC_NODE":"183.7076","TLE_LINE1":"1 52639U 22052AT  23058.78699464  .00011837  00000-0  75992-3 0  9992","MEAN_MOTION":"15.08871880","TLE_LINE2":"2 52639  53.2150 183.7076 0001144  79.1267 280.9854 15.08871880 44984","EPHEMERIS_TYPE":"0","COUNTRY_CODE":"US","APOAPSIS":"540.439","ECCENTRICITY":"0.00011440","TIME_SYSTEM":"UTC","ELEMENT_SET_NO":"999","EPOCH":"2023-02-27T18:53:16.336896","PERIAPSIS":"538.857","LAUNCH_DATE":"2022-05-14","RCS_SIZE":"LARGE","GP_ID":"227195482","INCLINATION":"53.2150","ARG_OF_PERICENTER":"79.1267","REV_AT_EPOCH":"4498","OBJECT_TYPE":"PAYLOAD","CLASSIFICATION_TYPE":"U","BSTAR":"0.00075992000000","REF_FRAME":"TEME","CENTER_NAME":"EARTH","MEAN_ELEMENT_THEORY":"SGP4","NORAD_CAT_ID":"52639","OBJECT_NAME":"STARLINK-3968","OBJECT_ID":"2022-052AT","MEAN_MOTION_DDOT":"0.0000000000000","MEAN_MOTION_DOT":"0.00011837"}];
